HOKUSHIN-1              
1 69648U 98067YH  26187.33607364  .00024865  00000+0  43121-3 0  9997
2 69648  51.6310 205.1886 0006086 296.8092  63.2274 15.50705313  2621
STARLINK-37656          
1 69649U 26143A   26188.41672454 -.02249474  00000+0 -36388-1 0  9990
2 69649  97.2844 232.2213 0001274  89.6875 341.9824 15.56226689  3714
STARLINK-37646          
1 69650U 26143B   26188.41672454 -.00671599  00000+0 -60238-2 0  9999
2 69650  97.2854 232.3209 0001104  81.3683 230.9359 15.70180210  3716
STARLINK-37749          
1 69651U 26143C   26188.41672454 -.02481782  00000+0 -24756-1 0  9999
2 69651  97.2852 232.3253 0001294  92.2673 232.7318 15.68897448  3714
STARLINK-37819          
1 69652U 26143D   26188.41672454 -.02477992  00000+0 -26906-1 0  9997
2 69652  97.2847 232.3067 0001462 103.4825 176.6352 15.66822026  3715
STARLINK-37729          
1 69653U 26143E   26188.41672454  .00051020  00000+0  25218-3 0  9991
2 69653  97.2834 232.3496 0000728 172.0692 203.1296 15.81942237  3713
STARLINK-37838          
1 69654U 26143F   26188.41672454 -.02521257  00000+0 -19768-1 0  9991
2 69654  97.2848 232.3303 0001417  86.2209 251.1225 15.75225060  3718
STARLINK-37884          
1 69655U 26143G   26188.41672454 -.02419371  00000+0 -30458-1 0  9994
2 69655  97.2848 232.3131 0001814 104.7551 183.3273 15.63031861  3715
STARLINK-37876          
1 69656U 26143H   26188.41672454 -.02394282  00000+0 -19784-1 0  9997
2 69656  97.2849 232.3396 0001433  97.9434 260.1869 15.73811970  3612
STARLINK-37784          
1 69657U 26143J   26188.41672454 -.02403438  00000+0 -27513-1 0  9991
2 69657  97.2847 232.3175 0001759 110.0654 188.7809 15.65401255  3619
STARLINK-37851          
1 69658U 26143K   26188.41672454 -.02090036  00000+0 -18389-1 0  9999
2 69658  97.2848 232.3463 0001304  79.9115 294.6687 15.71859432  3603
STARLINK-37229          
1 69659U 26143L   26188.41672454 -.02557935  00000+0 -24948-1 0  9994
2 69659  97.2852 232.3177 0001266 106.3891 201.0991 15.69547058  3654
STARLINK-37556          
1 69660U 26143M   26188.41672454 -.02348536  00000+0 -21687-1 0  9998
2 69660  97.2852 232.3308 0001439 111.1466 216.3087 15.71140133  3657
STARLINK-37867          
1 69661U 26143N   26188.41672454 -.02391431  00000+0 -22066-1 0  9993
2 69661  97.2849 232.3501 0001430  78.1453 301.3813 15.71231570  3612
STARLINK-37852          
1 69662U 26143P   26188.41672454 -.02350988  00000+0 -27897-1 0  9993
2 69662  97.2854 232.3094 0001708 105.0399 173.2649 15.64426448  3618
STARLINK-37554          
1 69663U 26143Q   26188.41672454 -.01310978  00000+0 -12609-1 0  9993
2 69663  97.2848 232.3330 0001021  60.3565 283.5042 15.69304555  3656
STARLINK-37830          
1 69664U 26143R   26188.41672454 -.02485320  00000+0 -27097-1 0  9996
2 69664  97.2853 232.3172 0001306 107.4996 200.5989 15.66732256  3608
STARLINK-37837          
1 69665U 26143S   26188.41672454 -.01975049  00000+0 -17472-1 0  9994
2 69665  97.2849 232.3405 0001355  75.6085 284.8103 15.71549684  3613
STARLINK-37943          
1 69666U 26143T   26188.41672454 -.00816440  00000+0 -96624-2 0  9990
2 69666  97.2848 232.3197 0001591 104.8396 200.7855 15.63768816  3615
STARLINK-37941          
1 69667U 26143U   26188.41672454 -.00847305  00000+0 -83089-2 0  9996
2 69667  97.2849 232.3318 0001109 105.3270 236.8755 15.68535261  3614
STARLINK-37930          
1 69668U 26143V   26188.41672454 -.00656537  00000+0 -68437-2 0  9992
2 69668  97.2854 232.3291 0001054 105.3096 224.5588 15.66467155  3607
STARLINK-37945          
1 69669U 26143W   26188.41672454 -.02546481  00000+0 -22282-1 0  9998
2 69669  97.2848 232.3491 0001473  90.7022 291.6891 15.72104960  3616
STARLINK-37948          
1 69670U 26143X   26188.41672454 -.02615126  00000+0 -43431-1 0  9992
2 69670  97.2855 232.3069 0001304  79.8546 197.7553 15.55475171  3616
STARLINK-37949          
1 69671U 26143Y   26188.41672454 -.00693491  00000+0 -84599-2 0  9993
2 69671  97.2850 232.3368 0001197  82.2464 261.6899 15.62614864  3617
STARLINK-37946          
1 69672U 26143Z   26188.41672454 -.02417033  00000+0 -24739-1 0  9991
2 69672  97.2846 232.3509 0001396  75.8832 307.4316 15.68180505  3617
TJS-26A                 
1 69674U 26144A   26174.32980920  .00009630 -16661-6  31526-3 0  9997
2 69674  19.5157 324.7456 7314561 179.7910 181.1077  2.27958502    21
STARLINK-38005          
1 69677U 26145A   26188.42631196  .00167598  00000+0  10938-2 0  9998
2 69677  97.2849  34.8789 0001236  75.7123 284.4279 15.75375757  1955
STARLINK-38009          
1 69678U 26145B   26188.42454529  .00186438  00000+0  12129-2 0  9990
2 69678  97.2844  34.8810 0001178  94.8477 265.2922 15.75395580  1953
